SHIYAN-1 (SY-1)         
1 28220U 04012A   26068.73650539  .00016393  00000+0  54854-3 0  9991
2 28220  97.8764 140.5238 0005873  23.6952 336.4557 15.31043463195862
STARLINK-30423          
1 57843U 23141D   26068.87947193  .00000569  00000+0  31327-4 0  9997
2 57843  53.1597 283.2756 0001149  80.3701 279.7429 15.30190777140359
